COMMENT,ORIGINATOR,NORAD_CAT_ID,OBJECT_NAME,OBJECT_TYPE,CLASSIFICATION_TYPE,INTLDES,EPOCH,EPOCH_MICROSECONDS,MEAN_MOTION,ECCENTRICITY,INCLINATION,RA_OF_ASC_NODE,ARG_OF_PERICENTER,MEAN_ANOMALY,EPHEMERIS_TYPE,ELEMENT_SET_NO,REV_AT_EPOCH,BSTAR,MEAN_MOTION_DOT,MEAN_MOTION_DDOT,FILE,TLE_LINE0,TLE_LINE1,TLE_LINE2,OBJECT_ID,OBJECT_NUMBER,SEMIMAJOR_AXIS,PERIOD,APOGEE,PERIGEE,DECAYED
"GENERATED VIA SPACETRACK.ORG API","18 SPCS","55102","SPACEBEE-157","PAYLOAD","U","23001CX","2023-11-12 20:50:25","436544","15.28419372","0.0012182","97.4559","16.4273","197.6349","162.4469","0","999","4775","0.0011388","0.00031597","0","4086163","0 SPACEBEE-157","1 55102U 23001CX  23316.86834996  .00031597  00000-0  11388-2 0  9995","2 55102  97.4559  16.4273 0012182 197.6349 162.4469 15.28419372 47757","2023-001CX","55102","6858.674","94.215","488.894","472.184","0"
"GENERATED VIA SPACETRACK.ORG API","18 SPCS","55102","SPACEBEE-157","PAYLOAD","U","23001CX","2023-11-13 09:24:37","251648","15.28457665","0.0012196","97.4557","16.9514","195.8831","164.2028","0","999","4783","0.001353","0.00037629","0","4087079","0 SPACEBEE-157","1 55102U 23001CX  23317.39209782  .00037629  00000-0  13530-2 0  9996","2 55102  97.4557  16.9514 0012196 195.8831 164.2028 15.28457665 47836","2023-001CX","55102","6858.559","94.213","488.789","472.060","0"
"GENERATED VIA SPACETRACK.ORG API","18 SPCS","55102","SPACEBEE-157","PAYLOAD","U","23001CX","2023-11-13 09:24:37","251648","15.28457665","0.0012196","97.4557","16.9514","195.8831","164.2028","0","999","4783","0.001353","0.00037629","0","4087425","0 SPACEBEE-157","1 55102U 23001CX  23317.39209782  .00037629  00000-0  13530-2 0  9996","2 55102  97.4557  16.9514 0012196 195.8831 164.2028 15.28457665 47836","2023-001CX","55102","6858.559","94.213","488.789","472.060","0"
"GENERATED VIA SPACETRACK.ORG API","18 SPCS","55102","SPACEBEE-157","PAYLOAD","U","23001CX","2023-11-14 02:41:36","898368","15.28499436","0.001218","97.4555","17.6726","193.1151","166.9774","0","999","4794","0.0011061","0.0003076","0","4088086","0 SPACEBEE-157","1 55102U 23001CX  23318.11223262  .00030760  00000-0  11061-2 0  9992","2 55102  97.4555  17.6726 0012180 193.1151 166.9774 15.28499436 47947","2023-001CX","55102","6858.434","94.210","488.653","471.946","0"
"GENERATED VIA SPACETRACK.ORG API","18 SPCS","55102","SPACEBEE-157","PAYLOAD","U","23001CX","2023-11-14 10:32:57","942528","15.28516222","0.0012227","97.4556","18","191.8964","168.1989","0","999","4799","0.0009443","0.00026247","0","4089264","0 SPACEBEE-157","1 55102U 23001CX  23318.43955952  .00026247  00000-0  94430-3 0  9992","2 55102  97.4556  18.0000 0012227 191.8964 168.1989 15.28516222 47997","2023-001CX","55102","6858.384","94.209","488.635","471.863","0"
"GENERATED VIA SPACETRACK.ORG API","18 SPCS","55102","SPACEBEE-157","PAYLOAD","U","23001CX","2023-11-14 21:32:50","847936","15.28543541","0.0012257","97.4553","18.4587","190.1466","169.9528","0","999","4806","0.0010134","0.00028205","0","4089734","0 SPACEBEE-157","1 55102U 23001CX  23318.89781074  .00028205  00000-0  10134-2 0  9998","2 55102  97.4553  18.4587 0012257 190.1466 169.9528 15.28543541 48061","2023-001CX","55102","6858.302","94.207","488.574","471.761","0"
"GENERATED VIA SPACETRACK.ORG API","18 SPCS","55102","SPACEBEE-157","PAYLOAD","U","23001CX","2023-11-15 03:49:55","75008","15.28559326","0.001224","97.455","18.7204","189.1378","170.964","0","999","4810","0.0010282","0.00028633","0","4090100","0 SPACEBEE-157","1 55102U 23001CX  23319.15966522  .00028633  00000-0  10282-2 0  9990","2 55102  97.4550  18.7204 0012240 189.1378 170.9640 15.28559326 48109","2023-001CX","55102","6858.255","94.206","488.515","471.726","0"
"GENERATED VIA SPACETRACK.ORG API","18 SPCS","55102","SPACEBEE-157","PAYLOAD","U","23001CX","2023-11-15 10:06:59","46336","15.28572772","0.0012295","97.4547","18.9825","188.287","171.8169","0","999","4814","0.00094517","0.00026318","0","4090840","0 SPACEBEE-157","1 55102U 23001CX  23319.42151674  .00026318  00000-0  94517-3 0  9996","2 55102  97.4547  18.9825 0012295 188.2870 171.8169 15.28572772 48143","2023-001CX","55102","6858.215","94.206","488.512","471.648","0"
"GENERATED VIA SPACETRACK.ORG API","18 SPCS","55102","SPACEBEE-157","PAYLOAD","U","23001CX","2023-11-16 14:23:44","514528","15.28634128","0.001235","97.454","20.1614","184.2662","175.8475","0","999","4832","0.00087439","0.00024382","0","4092274","0 SPACEBEE-157","1 55102U 23001CX  23320.59982077  .00024382  00000-0  87439-3 0  9999","2 55102  97.4540  20.1614 0012350 184.2662 175.8475 15.28634128 48322","2023-001CX","55102","6858.031","94.202","488.366","471.427","0"
"GENERATED VIA SPACETRACK.ORG API","18 SPCS","55102","SPACEBEE-157","PAYLOAD","U","23001CX","2023-11-16 14:23:44","514528","15.28634128","0.001235","97.454","20.1614","184.2662","175.8475","0","999","4832","0.00087439","0.00024382","0","4092467","0 SPACEBEE-157","1 55102U 23001CX  23320.59982077  .00024382  00000-0  87439-3 0  9999","2 55102  97.4540  20.1614 0012350 184.2662 175.8475 15.28634128 48322","2023-001CX","55102","6858.031","94.202","488.366","471.427","0"
"GENERATED VIA SPACETRACK.ORG API","18 SPCS","55102","SPACEBEE-157","PAYLOAD","U","23001CX","2023-11-17 02:57:50","142528","15.2866093","0.0012335","97.454","20.6859","182.328","177.7904","0","999","4840","0.00092893","0.00025933","0","4093899","0 SPACEBEE-157","1 55102U 23001CX  23321.12349702  .00025933  00000-0  92893-3 0  9994","2 55102  97.4540  20.6859 0012335 182.3280 177.7904 15.28660930 48403","2023-001CX","55102","6857.951","94.200","488.276","471.357","0"
"GENERATED VIA SPACETRACK.ORG API","18 SPCS","55102","SPACEBEE-157","PAYLOAD","U","23001CX","2023-11-17 21:48:57","326112","15.28691167","0.0012435","97.4538","21.4722","179.321","180.8049","0","999","4852","0.00075771","0.00021146","0","4094359","0 SPACEBEE-157","1 55102U 23001CX  23321.90899683  .00021146  00000-0  75771-3 0  9996","2 55102  97.4538  21.4722 0012435 179.3210 180.8049 15.28691167 48522","2023-001CX","55102","6857.861","94.198","488.254","471.198","0"
"GENERATED VIA SPACETRACK.ORG API","18 SPCS","55102","SPACEBEE-157","PAYLOAD","U","23001CX","2023-11-18 04:05:59","390592","15.28703149","0.001243","97.4537","21.7343","178.4617","181.6663","0","999","4856","0.00075461","0.00021067","0","4094592","0 SPACEBEE-157","1 55102U 23001CX  23322.17082628  .00021067  00000-0  75461-3 0  9997","2 55102  97.4537  21.7343 0012430 178.4617 181.6663 15.28703149 48568","2023-001CX","55102","6857.825","94.197","488.214","471.166","0"
"GENERATED VIA SPACETRACK.ORG API","18 SPCS","55102","SPACEBEE-157","PAYLOAD","U","23001CX","2023-11-18 10:23:01","308192","15.28711095","0.0012499","97.4538","21.9962","177.6363","182.4938","0","999","4860","0.00065373","0.00018239","0","4095448","0 SPACEBEE-157","1 55102U 23001CX  23322.43265403  .00018239  00000-0  65373-3 0  9998","2 55102  97.4538  21.9962 0012499 177.6363 182.4938 15.28711095 48600","2023-001CX","55102","6857.801","94.197","488.238","471.095","0"
"GENERATED VIA SPACETRACK.ORG API","18 SPCS","55102","SPACEBEE-157","PAYLOAD","U","23001CX","2023-11-18 21:22:49","330272","15.28728034","0.0012537","97.4538","22.4553","175.9638","184.1705","0","999","4867","0.00065701","0.00018341","0","4095863","0 SPACEBEE-157","1 55102U 23001CX  23322.89084873  .00018341  00000-0  65701-3 0  9997","2 55102  97.4538  22.4553 0012537 175.9638 184.1705 15.28728034 48670","2023-001CX","55102","6857.751","94.196","488.213","471.018","0"
"GENERATED VIA SPACETRACK.ORG API","18 SPCS","55102","SPACEBEE-157","PAYLOAD","U","23001CX","2023-11-19 09:56:52","196064","15.28750603","0.0012576","97.454","22.9792","174.3756","185.7628","0","999","4875","0.00074035","0.00020698","0","4096562","0 SPACEBEE-157","1 55102U 23001CX  23323.41449301  .00020698  00000-0  74035-3 0  9995","2 55102  97.4540  22.9792 0012576 174.3756 185.7628 15.28750603 48757","2023-001CX","55102","6857.683","94.195","488.172","470.924","0"
"GENERATED VIA SPACETRACK.ORG API","18 SPCS","55102","SPACEBEE-157","PAYLOAD","U","23001CX","2023-11-19 09:56:52","196064","15.28750603","0.0012576","97.454","22.9792","174.3756","185.7628","0","999","4875","0.00074035","0.00020698","0","4096886","0 SPACEBEE-157","1 55102U 23001CX  23323.41449301  .00020698  00000-0  74035-3 0  9995","2 55102  97.4540  22.9792 0012576 174.3756 185.7628 15.28750603 48757","2023-001CX","55102","6857.683","94.195","488.172","470.924","0"
"GENERATED VIA SPACETRACK.ORG API","18 SPCS","55102","SPACEBEE-157","PAYLOAD","U","23001CX","2023-11-19 16:13:53","404320","15.2876295","0.0012603","97.4541","23.2413","173.4775","186.6632","0","999","4879","0.0007911","0.00022135","0","4097440","0 SPACEBEE-157","1 55102U 23001CX  23323.67631255  .00022135  00000-0  79110-3 0  9991","2 55102  97.4541  23.2413 0012603 173.4775 186.6632 15.28762950 48791","2023-001CX","55102","6857.646","94.194","488.154","470.869","0"
"GENERATED VIA SPACETRACK.ORG API","18 SPCS","55102","SPACEBEE-157","PAYLOAD","U","23001CX","2023-11-20 09:30:40","768416","15.28794869","0.0012602","97.4542","23.9623","170.9111","189.236","0","999","4890","0.00080562","0.00022566","0","4098394","0 SPACEBEE-157","1 55102U 23001CX  23324.39630519  .00022566  00000-0  80562-3 0  9994","2 55102  97.4542  23.9623 0012602 170.9111 189.2360 15.28794869 48901","2023-001CX","55102","6857.551","94.192","488.058","470.774","0"
"GENERATED VIA SPACETRACK.ORG API","18 SPCS","55102","SPACEBEE-157","PAYLOAD","U","23001CX","2023-11-20 18:56:11","448096","15.28817097","0.0012646","97.4544","24.3555","169.5497","190.6008","0","999","4896","0.00092862","0.00026052","0","4098837","0 SPACEBEE-157","1 55102U 23001CX  23324.78902139  .00026052  00000-0  92862-3 0  9997","2 55102  97.4544  24.3555 0012646 169.5497 190.6008 15.28817097 48961","2023-001CX","55102","6857.484","94.190","488.021","470.677","0"
